[{"OBJECT_NAME":"STARLINK-30449","OBJECT_ID":"2023-146N","EPOCH":"2026-03-09T22:00:01.999584","MEAN_MOTION":15.06613428,"ECCENTRICITY":0.00015375,"INCLINATION":43.0004,"RA_OF_ASC_NODE":311.56,"ARG_OF_PERICENTER":279.873,"MEAN_ANOMALY":194.5239,"EPHEMERIS_TYPE":0,"CLASSIFICATION_TYPE":"U","NORAD_CAT_ID":57903,"ELEMENT_SET_NO":999,"REV_AT_EPOCH":578,"BSTAR":0.062378126,"MEAN_MOTION_DOT":0.01013373,"MEAN_MOTION_DDOT":0},{"OBJECT_NAME":"FLAMINGO-1","OBJECT_ID":"2026-004AE","EPOCH":"2026-03-09T22:11:27.220704","MEAN_MOTION":15.17446566,"ECCENTRICITY":0.00039812,"INCLINATION":97.4546,"RA_OF_ASC_NODE":69.3601,"ARG_OF_PERICENTER":332.6166,"MEAN_ANOMALY":27.4857,"EPHEMERIS_TYPE":0,"CLASSIFICATION_TYPE":"U","NORAD_CAT_ID":67391,"ELEMENT_SET_NO":999,"REV_AT_EPOCH":869,"BSTAR":0.00014641045,"MEAN_MOTION_DOT":2.863e-5,"MEAN_MOTION_DDOT":0}]
